{"type": "FeatureCollection", "features": [{"type": "Feature", "properties": {"norad_id": 28890, "name": "BEIJING 1", "group": "dmc", "lat": 79.81073419296413, "lon": 51.75319543393368, "alt_km": 673.6975189269251, "timestamp": "2025-12-04T05:42:43.044411+00:00", "meta": {"OBJECT_NAME": "BEIJING 1", "OBJECT_ID": "2005-043A", "EPOCH": "2025-12-03T22:45:52.689600", "MEAN_MOTION": 14.63353287, "ECCENTRICITY": 0.00148723, "INCLINATION": 98.265, "RA_OF_ASC_NODE": 105.435, "ARG_OF_PERICENTER": 168.0524, "MEAN_ANOMALY": 192.1034, "EPHEMERIS_TYPE": 0, "CLASSIFICATION_TYPE": "U", "NORAD_CAT_ID": 28890, "ELEMENT_SET_NO": 999, "REV_AT_EPOCH": 7209, "BSTAR": 0.00017075602, "MEAN_MOTION_DOT": 8.34e-06, "MEAN_MOTION_DDOT": 0}, "tle": {"line1": "1 28890U 05043A   25337.94852650  .00000834  00000+0  17076-3 0  9996", "line2": "2 28890  98.2650 105.4350 0014872 168.0524 192.1034 14.63353287 72095"}}, "geometry": {"type": "Point", "coordinates": [51.75319543393368, 79.81073419296413]}}, {"type": "Feature", "properties": {"norad_id": 33320, "name": "HUANJING 1A (HJ-1A)", "group": "dmc", "lat": -40.09160379900729, "lon": 140.3926990013276, "alt_km": 638.8399064850764, "timestamp": "2025-12-04T05:42:43.044434+00:00", "meta": {"OBJECT_NAME": "HUANJING 1A (HJ-1A)", "OBJECT_ID": "2008-041A", "EPOCH": "2025-12-03T23:51:56.367360", "MEAN_MOTION": 14.83350196, "ECCENTRICITY": 0.00206181, "INCLINATION": 97.6531, "RA_OF_ASC_NODE": 326.6588, "ARG_OF_PERICENTER": 61.5697, "MEAN_ANOMALY": 298.7592, "EPHEMERIS_TYPE": 0, "CLASSIFICATION_TYPE": "U", "NORAD_CAT_ID": 33320, "ELEMENT_SET_NO": 999, "REV_AT_EPOCH": 92946, "BSTAR": 0.00037646111, "MEAN_MOTION_DOT": 3.046e-05, "MEAN_MOTION_DDOT": 0}, "tle": {"line1": "1 33320U 08041A   25337.99440240  .00003046  00000+0  37646-3 0  9997", "line2": "2 33320  97.6531 326.6588 0020618  61.5697 298.7592 14.83350196929465"}}, "geometry": {"type": "Point", "coordinates": [140.3926990013276, -40.09160379900729]}}, {"type": "Feature", "properties": {"norad_id": 33321, "name": "HUANJING 1B (HJ-1B)", "group": "dmc", "lat": 78.31963835328857, "lon": -168.90316327769943, "alt_km": 586.5814764081388, "timestamp": "2025-12-04T05:42:43.044449+00:00", "meta": {"OBJECT_NAME": "HUANJING 1B (HJ-1B)", "OBJECT_ID": "2008-041B", "EPOCH": "2025-12-03T22:47:28.831200", "MEAN_MOTION": 14.8278519, "ECCENTRICITY": 0.0038159, "INCLINATION": 97.6396, "RA_OF_ASC_NODE": 330.3357, "ARG_OF_PERICENTER": 103.5461, "MEAN_ANOMALY": 257.0009, "EPHEMERIS_TYPE": 0, "CLASSIFICATION_TYPE": "U", "NORAD_CAT_ID": 33321, "ELEMENT_SET_NO": 999, "REV_AT_EPOCH": 92947, "BSTAR": 0.00025431796, "MEAN_MOTION_DOT": 2.031e-05, "MEAN_MOTION_DDOT": 0}, "tle": {"line1": "1 33321U 08041B   25337.94963925  .00002031  00000+0  25432-3 0  9996", "line2": "2 33321  97.6396 330.3357 0038159 103.5461 257.0009 14.82785190929473"}}, "geometry": {"type": "Point", "coordinates": [-168.90316327769943, 78.31963835328857]}}, {"type": "Feature", "properties": {"norad_id": 33446, "name": "YAOGAN-4", "group": "dmc", "lat": 14.448762785810166, "lon": -93.63370561653598, "alt_km": 612.7194935243697, "timestamp": "2025-12-04T05:42:43.044460+00:00", "meta": {"OBJECT_NAME": "YAOGAN-4", "OBJECT_ID": "2008-061A", "EPOCH": "2025-12-03T19:55:41.461536", "MEAN_MOTION": 14.82635985, "ECCENTRICITY": 0.00143425, "INCLINATION": 97.9169, "RA_OF_ASC_NODE": 268.0176, "ARG_OF_PERICENTER": 353.1456, "MEAN_ANOMALY": 6.9559, "EPHEMERIS_TYPE": 0, "CLASSIFICATION_TYPE": "U", "NORAD_CAT_ID": 33446, "ELEMENT_SET_NO": 999, "REV_AT_EPOCH": 91671, "BSTAR": 0.00033242985, "MEAN_MOTION_DOT": 2.629e-05, "MEAN_MOTION_DDOT": 0}, "tle": {"line1": "1 33446U 08061A   25337.83034099  .00002629  00000+0  33243-3 0  9997", "line2": "2 33446  97.9169 268.0176 0014342 353.1456   6.9559 14.82635985916713"}}, "geometry": {"type": "Point", "coordinates": [-93.63370561653598, 14.448762785810166]}}, {"type": "Feature", "properties": {"norad_id": 35681, "name": "DEIMOS-1", "group": "dmc", "lat": 20.198686121366528, "lon": 136.37887782484324, "alt_km": 644.9268688244956, "timestamp": "2025-12-04T05:42:43.044472+00:00", "meta": {"OBJECT_NAME": "DEIMOS-1", "OBJECT_ID": "2009-041A", "EPOCH": "2025-12-03T23:06:25.373088", "MEAN_MOTION": 14.74931905, "ECCENTRICITY": 0.00026862, "INCLINATION": 97.7146, "RA_OF_ASC_NODE": 138.9752, "ARG_OF_PERICENTER": 95.9756, "MEAN_ANOMALY": 264.176, "EPHEMERIS_TYPE": 0, "CLASSIFICATION_TYPE": "U", "NORAD_CAT_ID": 35681, "ELEMENT_SET_NO": 999, "REV_AT_EPOCH": 87810, "BSTAR": 0.00020692941, "MEAN_MOTION_DOT": 1.342e-05, "MEAN_MOTION_DDOT": 0}, "tle": {"line1": "1 35681U 09041A   25337.96279367  .00001342  00000+0  20693-3 0  9998", "line2": "2 35681  97.7146 138.9752 0002686  95.9756 264.1760 14.74931905878100"}}, "geometry": {"type": "Point", "coordinates": [136.37887782484324, 20.198686121366528]}}, {"type": "Feature", "properties": {"norad_id": 35683, "name": "UK-DMC 2", "group": "dmc", "lat": 14.906745240069357, "lon": 111.27490449479438, "alt_km": 644.0984644029068, "timestamp": "2025-12-04T05:42:43.044483+00:00", "meta": {"OBJECT_NAME": "UK-DMC 2", "OBJECT_ID": "2009-041C", "EPOCH": "2025-12-03T23:08:02.863392", "MEAN_MOTION": 14.75591462, "ECCENTRICITY": 0.00012972, "INCLINATION": 97.8557, "RA_OF_ASC_NODE": 113.115, "ARG_OF_PERICENTER": 102.4234, "MEAN_ANOMALY": 257.7121, "EPHEMERIS_TYPE": 0, "CLASSIFICATION_TYPE": "U", "NORAD_CAT_ID": 35683, "ELEMENT_SET_NO": 999, "REV_AT_EPOCH": 87777, "BSTAR": 0.00028189008, "MEAN_MOTION_DOT": 1.873e-05, "MEAN_MOTION_DDOT": 0}, "tle": {"line1": "1 35683U 09041C   25337.96392203  .00001873  00000+0  28189-3 0  9992", "line2": "2 35683  97.8557 113.1150 0001297 102.4234 257.7121 14.75591462877770"}}, "geometry": {"type": "Point", "coordinates": [111.27490449479438, 14.906745240069357]}}, {"type": "Feature", "properties": {"norad_id": 40715, "name": "DMC3-FM1", "group": "dmc", "lat": 55.03851216443929, "lon": 36.85224693945177, "alt_km": 609.5672167164148, "timestamp": "2025-12-04T05:42:43.044493+00:00", "meta": {"OBJECT_NAME": "DMC3-FM1", "OBJECT_ID": "2015-032A", "EPOCH": "2025-12-03T22:41:17.914272", "MEAN_MOTION": 14.85416316, "ECCENTRICITY": 0.00052834, "INCLINATION": 97.6699, "RA_OF_ASC_NODE": 205.4579, "ARG_OF_PERICENTER": 352.5311, "MEAN_ANOMALY": 7.5825, "EPHEMERIS_TYPE": 0, "CLASSIFICATION_TYPE": "U", "NORAD_CAT_ID": 40715, "ELEMENT_SET_NO": 999, "REV_AT_EPOCH": 56092, "BSTAR": 0.00018081573, "MEAN_MOTION_DOT": 1.506e-05, "MEAN_MOTION_DDOT": 0}, "tle": {"line1": "1 40715U 15032A   25337.94534623  .00001506  00000+0  18082-3 0  9997", "line2": "2 40715  97.6699 205.4579 0005283 352.5311   7.5825 14.85416316560923"}}, "geometry": {"type": "Point", "coordinates": [36.85224693945177, 55.03851216443929]}}, {"type": "Feature", "properties": {"norad_id": 40716, "name": "DMC3-FM2", "group": "dmc", "lat": 3.6932505479587876, "lon": -153.32115530790517, "alt_km": 610.7048611644259, "timestamp": "2025-12-04T05:42:43.044503+00:00", "meta": {"OBJECT_NAME": "DMC3-FM2", "OBJECT_ID": "2015-032B", "EPOCH": "2025-12-03T23:13:42.403296", "MEAN_MOTION": 14.85418265, "ECCENTRICITY": 0.00059322, "INCLINATION": 97.6756, "RA_OF_ASC_NODE": 206.9172, "ARG_OF_PERICENTER": 356.626, "MEAN_ANOMALY": 3.4914, "EPHEMERIS_TYPE": 0, "CLASSIFICATION_TYPE": "U", "NORAD_CAT_ID": 40716, "ELEMENT_SET_NO": 999, "REV_AT_EPOCH": 56092, "BSTAR": 0.00019015473, "MEAN_MOTION_DOT": 1.587e-05, "MEAN_MOTION_DDOT": 0}, "tle": {"line1": "1 40716U 15032B   25337.96785189  .00001587  00000+0  19015-3 0  9991", "line2": "2 40716  97.6756 206.9172 0005932 356.6260   3.4914 14.85418265560921"}}, "geometry": {"type": "Point", "coordinates": [-153.32115530790517, 3.6932505479587876]}}, {"type": "Feature", "properties": {"norad_id": 40717, "name": "DMC3-FM3", "group": "dmc", "lat": -67.27492905188149, "lon": 10.006675297491602, "alt_km": 620.7948316026223, "timestamp": "2025-12-04T05:42:43.044513+00:00", "meta": {"OBJECT_NAME": "DMC3-FM3", "OBJECT_ID": "2015-032C", "EPOCH": "2025-12-03T22:07:45.908832", "MEAN_MOTION": 14.85409847, "ECCENTRICITY": 0.00052962, "INCLINATION": 97.6811, "RA_OF_ASC_NODE": 208.5002, "ARG_OF_PERICENTER": 359.0348, "MEAN_ANOMALY": 1.0856, "EPHEMERIS_TYPE": 0, "CLASSIFICATION_TYPE": "U", "NORAD_CAT_ID": 40717, "ELEMENT_SET_NO": 999, "REV_AT_EPOCH": 56092, "BSTAR": 0.00012992169, "MEAN_MOTION_DOT": 1.068e-05, "MEAN_MOTION_DDOT": 0}, "tle": {"line1": "1 40717U 15032C   25337.92205913  .00001068  00000+0  12992-3 0  9991", "line2": "2 40717  97.6811 208.5002 0005296 359.0348   1.0856 14.85409847560926"}}, "geometry": {"type": "Point", "coordinates": [10.006675297491602, -67.27492905188149]}}]}